HELIOS 1B               
1 25977U 99064A   20326.21371494  .00000082  00000-0  17334-4 0  9994
2 25977  98.2983 126.7545 0001476 145.2557 214.8752 14.82508628398348
TERRA                   
1 25994U 99068A   20326.43422660  .00000085  00000-0  28859-4 0  9990
2 25994  98.1997  38.4227 0001186  90.2146 325.9158 14.57117119113171
SL-16 R/B               
1 26070U 00006B   20326.12312852  .00000135  00000-0  93661-4 0  9996
2 26070  71.0029 204.0293 0018724 248.7955 111.1168 14.15472104 74805
MTI                     
1 26102U 00014A   20326.43015666  .00007710  00000-0  10694-3 0  9998
2 26102  97.4812 216.3545 0008037  22.5641 337.6108 15.57322291148938
TITAN 4B R/B            
1 26474U 00047B   20326.17050474  .00000191  00000-0  27422-4 0  9997
2 26474  67.9946   4.3032 0054111  20.2335 340.0934 14.96019795102686
ENVISAT                 
1 27386U 02009A   20326.42077861  .00000026  00000-0  22090-4 0  9990
2 27386  98.1400 325.2395 0001302  91.7789  73.2608 14.38000196981170
IDEFIX & ARIANE 42P R/B 
1 27422U 02021B   20326.12636182  .00000017  00000-0  22992-4 0  9990
2 27422  98.3736 280.8620 0013052 124.7660 235.4753 14.29299131967549
AQUA                    
1 27424U 02022A   20326.46467345  .00000138  00000-0  40649-4 0  9996
2 27424  98.2069 264.7729 0000865 155.1722 318.3150 14.57106111986780
CZ-4B R/B               
1 27432U 02024C   20325.98987860 -.00000027  00000-0  97596-5 0  9994
2 27432  99.0907 330.8623 0051392  94.7652 318.3421 14.14099757955774
MIDORI II (ADEOS-II)    
1 27597U 02056A   20326.40853610  .00000063  00000-0  43126-4 0  9992
2 27597  98.5390 270.1743 0000256 130.8711 229.2492 14.27469358934201
H-2A R/B                
1 27601U 02056E   20326.11587772  .00000084  00000-0  45138-4 0  9997
2 27601  98.2106 353.7084 0072407 170.0788 257.3328 14.31983941937119
CZ-4B R/B               
1 28059U 03049C   20326.37393508  .00000066  00000-0  27536-4 0  9990
2 28059  98.4863 244.6476 0050562  20.1305 340.1869 14.52620333905594
CZ-2C R/B               
1 28222U 04012C   20326.17971450  .00000791  00000-0  50972-4 0  9994
2 28222  97.6993 289.3338 0046041 212.3279 157.9555 15.10558304909656
SL-16 R/B               
1 28353U 04021B   20326.15841365 -.00000291  00000-0 -12746-3 0  9991
2 28353  71.0002 330.6702 0002502 103.8363 256.3037 14.14235801849294
CZ-4B R/B               
1 28415U 04035C   20326.08058527  .00000431  00000-0  32257-4 0  9991
2 28415  97.5946   5.7828 0051557 176.7254 183.4322 15.06949056887222
CZ-2C R/B               
1 28480U 04046B   20326.05652458  .00000055  00000-0  35215-4 0  9994
2 28480  98.0641 348.7525 0142987 121.0881 293.3830 14.25733579832735
ARIANE 5 R/B            
1 28499U 04049H   20326.22019412  .00000129  00000-0  23014-4 0  9999
2 28499  98.0623  68.5563 0093198 126.2007 291.1549 14.80062634859280
CZ-2D R/B               
1 28738U 05024B   20326.01844134  .00000501  00000-0  32661-4 0  9995
2 28738  97.3735 343.3321 0012092  10.9315 349.2176 15.12158732845066
SUZAKU (ASTRO-EII)      
1 28773U 05025A   20326.20991943  .00001679  00000-0  76614-4 0  9990
2 28773  31.3822  77.2046 0004604 344.8321  15.2188 15.17836851847798
ALOS (DAICHI)           
1 28931U 06002A   20326.40764579  .00000144  00000-0  36952-4 0  9994
2 28931  97.8625 304.5848 0001273  22.7062 337.4194 14.62761529790646
H-2A R/B                
1 28932U 06002B   20326.00763396  .00000438  00000-0  46150-4 0  9994
2 28932  98.3306 324.9513 0088788 168.6632 203.9683 14.92343230804591
AKARI (ASTRO-F)         
1 28939U 06005A   20326.26002979  .00003496  00000-0  91894-4 0  9997
2 28939  98.2471 318.6202 0092367 134.5841 226.2986 15.35150420804967
RESURS-DK 1             
1 29228U 06021A   20325.92498930  .00000133  00000-0  17330-4 0  9993
2 29228  69.9338 149.6535 0007170 241.1456 118.8986 15.02593652796252
GENESIS 1               
1 29252U 06029A   20325.91885195  .00000655  00000-0  41663-4 0  9995
2 29252  64.5203 149.7661 0018168   4.7113 355.4178 15.18307057791856
CZ-4B R/B               
1 29507U 06046C   20326.05870493  .00000294  00000-0  27658-4 0  9995
2 29507  97.7211 347.2980 0048775   1.3402 358.7943 15.00569610768852
CZ-2C R/B               
1 31114U 07010B   20326.15860115  .00000037  00000-0  35715-4 0  9993
2 31114  98.2419 168.3795 0059869 169.2504 190.9969 14.19337228705238
COSMO-SKYMED 1          
1 31598U 07023A   20326.43980181 -.00000080  00000-0 -34880-5 0  9993
2 31598  97.8841 147.3300 0001440  90.9111 269.2269 14.82150949728087
GENESIS 2               
1 31789U 07028A   20326.02791301  .00000429  00000-0  31437-4 0  9998
2 31789  64.5022 191.3285 0033840 228.5516 131.2699 15.17428704738924
COSMOS 2428             
1 31792U 07029A   20326.37881115 -.00000211  00000-0 -88347-4 0  9997
2 31792  70.8951 303.3043 0009151 213.7270 146.3269 14.12252503691022
SL-16 R/B               
1 31793U 07029B   20326.35585767  .00000328  00000-0  19632-3 0  9997
2 31793  70.9757 276.7617 0001926 277.0818 194.9779 14.14438128691915
KORONAS-FOTON           
1 33504U 09003A   20326.22821432  .00000971  00000-0  48937-4 0  9996
2 33504  82.4437  66.8195 0020559  96.4128 263.9446 15.15769576651133
H-2A R/B                
1 38341U 12025E   20326.40905046  .00000262  00000-0  38087-4 0  9990
2 38341  98.5160 131.7770 0056640  87.8407 272.9290 14.84110628460737
CUSAT 2 & FALCON 9 R/B  
1 39271U 13055G   20326.43720145  .00005885  00000-0  13814-3 0  9991
2 39271  80.9648  97.9489 0581725  57.5996 308.0113 14.49900077373464
SL-4 R/B                
1 39679U 14021B   20325.80342123  .00000853  00000-0  58878-4 0  9993
2 39679  51.6151 101.7603 0171924 127.5453 234.1278 15.06606748362915
ALOS-2                  
1 39766U 14029A   20326.55463166 -.00000354  00000-0 -40572-4 0  9992
2 39766  97.9236  60.9064 0001552  93.6470 266.4925 14.79467653350921
CZ-2C R/B               
1 40306U 14071B   20326.39299421  .00005656  00000-0  11725-3 0  9999
2 40306  97.3437 274.5186 0013695 320.7599  39.2657 15.46054598338115
SL-27 R/B               
1 40354U 14084B   20326.44621405  .00001708  00000-0  42366-4 0  9993
2 40354  74.7390  63.2448 0036919 175.0689 185.0895 15.40526175332706
YAOGAN 29               
1 41038U 15069A   20326.37737691  .00000017  00000-0  92225-5 0  9996
2 41038  98.0239 314.2025 0002220  90.1285 270.0184 14.80469369269499
ASTRO-H (HITOMI)        
1 41337U 16012A   20326.04666066  .00000387  00000-0  24414-4 0  9992
2 41337  31.0052  96.8552 0012317 179.2413 180.8242 14.98737102261014
HXMT (HUIYAN)           
1 42758U 17034A   20326.52754630  .00000445  00000-0  41356-4 0  9992
2 42758  43.0191 254.2349 0011689 296.1126  40.4456 15.08958696189599
CZ-2C R/B               
1 43521U 18054D   20326.33031176  .00000952  00000-0  53641-4 0  9999
2 43521  35.1537 293.0555 0081769  61.3572 299.5336 15.11186592132894
AEOLUS                  
1 43600U 18066A   20326.00681535  .00040753  00000-0  16110-3 0  9996
2 43600  96.7209 330.0509 0007337 102.2990 257.9105 15.86661713130198
SAOCOM 1A               
1 43641U 18076A   20326.51569040  .00000017  00000-0  86437-5 0  9994
2 43641  97.8869 150.4006 0001401  83.0620 277.0756 14.82156459114867
CREW DRAGON DEMO-1 DEB  
1 44064U 19011B   20326.03136621  .00030473  00000-0  24997-3 0  9996
2 44064  51.6322 236.6530 0000812 264.5618  95.5287 15.70197987 97463
CZ-2F R/B               
1 46390U 20063B   20325.50834509  .00034095  00000-0  17440-3 0  9999
2 46390  50.2044  14.5151 0013696 281.1294  78.8148 15.80813116 12203
2020-063G               
1 46395U 20063G   20326.01342242  .00016239  00000-0  93915-4 0  9991
2 46395  50.2066  12.6156 0011096 274.6173  85.3541 15.78676967 12265
